OBJECT_NAME,OBJECT_ID,EPOCH,MEAN_MOTION,ECCENTRICITY,INCLINATION,RA_OF_ASC_NODE,ARG_OF_PERICENTER,MEAN_ANOMALY,EPHEMERIS_TYPE,CLASSIFICATION_TYPE,NORAD_CAT_ID,ELEMENT_SET_NO,REV_AT_EPOCH,BSTAR,MEAN_MOTION_DOT,MEAN_MOTION_DDOT
STARLINK-4031,2022-053Z,2026-05-13T04:46:28.145568,15.08836666,.0001072,53.2165,214.5287,88.1912,271.9203,0,U,52679,999,22087,.175865E-4,-.8E-7,0
STARLINK-3774,2022-053AA,2026-05-12T22:14:17.115072,15.08836800,.0001042,53.2166,215.5172,83.7469,276.3642,0,U,52680,999,22085,.36117E-4,.287E-5,0
STARLINK-4068,2022-053AB,2026-05-13T04:41:10.381056,15.08836112,.00010998,53.2160,214.5438,86.5989,273.5129,0,U,52681,999,22087,.4437046E-4,.418E-5,0
STARLINK-4017,2022-053AC,2026-05-13T04:57:03.979584,15.08839819,.00012799,53.2172,214.4945,84.4820,275.6318,0,U,52682,999,22089,.30407538E-4,.196E-5,0
STARLINK-4014,2022-053AE,2026-05-12T22:30:13.665888,15.08837555,.000116,53.2178,215.7022,89.9324,270.1801,0,U,52684,999,22083,.24062E-4,.95E-6,0
STARLINK-4029,2022-053AF,2026-05-13T05:55:21.688320,15.08833039,.00011715,53.2160,214.3128,86.2535,273.8591,0,U,52685,999,22086,.10128161E-4,-.127E-5,0
STARLINK-4005,2022-053AG,2026-05-13T05:14:23.211744,15.08846122,.00010781,53.2160,214.7191,85.9600,274.1515,0,U,52686,999,22086,.11490906E-3,.1542E-4,0
STARLINK-3981,2022-053AH,2026-05-13T05:50:03.416640,15.08839352,.00009392,53.2163,214.3304,91.4910,268.6190,0,U,52687,999,22086,-.9308439E-5,-.436E-5,0
STARLINK-4032,2022-053AJ,2026-05-13T05:44:44.238624,15.08839052,.00011692,53.2154,214.2295,88.8885,271.2241,0,U,52688,999,22086,-.21444099E-4,-.629E-5,0
STARLINK-4078,2022-053AK,2026-05-13T06:13:41.232864,15.64926230,.00062432,53.2056,130.7464,35.8524,324.2911,0,U,52689,999,22208,.63835383E-3,.63668E-3,0
STARLINK-4035,2022-053AL,2026-05-13T06:00:40.545792,15.08837707,.00011198,53.2161,214.2934,72.8970,287.2144,0,U,52690,999,22086,.86313178E-4,.1086E-4,0
STARLINK-3993,2022-053AN,2026-05-13T05:07:37.117056,15.08839960,.00010736,53.2166,214.1909,87.3140,272.7975,0,U,52692,999,22089,.21972158E-4,.62E-6,0
STARLINK-3946,2022-053AP,2026-05-13T05:18:15.714144,15.08838861,.00006631,53.2167,214.4281,79.3497,280.7570,0,U,52693,999,22089,.31972373E-4,.221E-5,0
STARLINK-4072,2022-053AQ,2026-05-12T12:10:12.589824,15.08842893,.0001156,53.2170,217.6354,84.0720,276.0404,0,U,52694,999,22078,.58452E-4,.643E-5,0
STARLINK-4041,2022-053AR,2026-05-12T22:37:28.790112,15.08835890,.0001252,53.2167,220.4733,92.7793,267.3342,0,U,52695,999,22079,.45583E-4,.438E-5,0
STARLINK-4018,2022-053AT,2026-05-12T15:19:03.225792,15.08843490,.00013269,53.2175,222.0462,89.2506,270.8638,0,U,52697,999,22074,.30029971E-4,.19E-5,0
STARLINK-4030,2022-053AU,2026-05-12T23:30:30.926304,15.08831039,.00013798,53.2162,220.5045,86.7793,273.3357,0,U,52698,999,22078,.26084873E-3,.3865E-4,0
STARLINK-3987,2022-053AV,2026-05-12T11:52:20.562816,15.08828254,.000114,53.2168,212.7197,89.7930,270.3193,0,U,52699,999,22087,.93767E-4,.1204E-4,0
STARLINK-4034,2022-053AW,2026-05-12T16:10:36.267168,15.08837850,.00011187,53.2168,221.5243,81.5444,278.5675,0,U,52700,999,22075,.73078565E-4,.875E-5,0
STARLINK-4033,2022-053AY,2026-05-13T05:36:09.222912,15.08841226,.0001148,53.2176,219.4021,86.6124,273.4999,0,U,52702,999,22083,.27773386E-4,.154E-5,0
STARLINK-4020,2022-053AZ,2026-05-13T04:37:13.212192,15.08839105,.00007723,53.2170,204.5701,116.6097,243.4975,0,U,52703,999,21977,.13462718E-3,.1856E-4,0
STARLINK-3999,2022-053BA,2026-05-13T04:58:23.380320,15.08837745,.00008635,53.2109,204.4872,109.7343,250.3743,0,U,52704,999,22105,-.8377056E-5,-.421E-5,0
STARLINK-3844,2022-053BB,2026-05-13T04:42:29.620224,15.08841731,.00010487,53.2171,204.5391,76.7842,283.3267,0,U,52705,999,22105,.87537534E-4,.1106E-4,0
STARLINK-3970,2022-053BC,2026-05-13T04:47:47.589504,15.08840049,.00010108,53.2162,204.5234,89.6355,270.4753,0,U,52706,999,22105,.8472607E-4,.1061E-4,0
STARLINK-4007,2022-053BD,2026-05-12T21:46:14.030976,15.09564945,.0001447,53.2159,205.6621,34.1148,325.9937,0,U,52707,999,22107,.55309E-3,.8701E-4,0
STARLINK-3962,2022-053BE,2026-05-13T05:19:35.147712,15.08837378,.00009231,53.2174,204.4123,79.4476,280.6620,0,U,52708,999,22126,.50146133E-4,.51E-5,0
COSMOS 2556,2022-054A,2026-05-13T06:38:29.099616,15.25966368,.0001336,97.6269,82.2569,107.6549,252.4834,0,U,52713,999,22141,.74780749E-4,.1844E-4,0
2022-056B,2022-056B,2026-05-13T06:52:52.678848,13.29588684,.00457777,86.0046,112.5002,133.2128,227.2846,0,U,52717,999,19367,.13674913E-2,.654E-5,0
GHGSAT-C3,2022-057F,2026-05-13T08:14:02.970816,15.33898193,.00050699,97.6546,277.7162,236.2306,123.8454,0,U,52737,999,22019,.13048748E-3,.4194E-4,0
GHGSAT-C5,2022-057N,2026-05-13T06:01:31.342080,15.33872932,.00056899,97.6635,279.1548,234.5025,125.5687,0,U,52744,999,22018,.12798292E-3,.4109E-4,0
