STARLINK-4031           
1 52679U 22053Z   26133.19893687 -.00000008  00000+0  17586-4 0  9996
2 52679  53.2165 214.5287 0001072  88.1912 271.9203 15.08836666220873
STARLINK-3774           
1 52680U 22053AA  26132.92658698  .00000287  00000+0  36117-4 0  9998
2 52680  53.2166 215.5172 0001042  83.7469 276.3642 15.08836800220859
STARLINK-4068           
1 52681U 22053AB  26133.19525904  .00000418  00000+0  44370-4 0  9998
2 52681  53.2160 214.5438 0001099  86.5989 273.5129 15.08836112220875
STARLINK-4017           
1 52682U 22053AC  26133.20629606  .00000196  00000+0  30408-4 0  9995
2 52682  53.2172 214.4945 0001279  84.4820 275.6318 15.08839819220894
STARLINK-4014           
1 52684U 22053AE  26132.93765817  .00000095  00000+0  24062-4 0  9998
2 52684  53.2178 215.7022 0001160  89.9324 270.1801 15.08837555220836
STARLINK-4029           
1 52685U 22053AF  26133.24677880 -.00000127  00000+0  10128-4 0  9991
2 52685  53.2160 214.3128 0001171  86.2535 273.8591 15.08833039220868
STARLINK-4005           
1 52686U 22053AG  26133.21832421  .00001542  00000+0  11491-3 0  9997
2 52686  53.2160 214.7191 0001078  85.9600 274.1515 15.08846122220865
STARLINK-3981           
1 52687U 22053AH  26133.24309510 -.00000436  00000+0 -93084-5 0  9992
2 52687  53.2163 214.3304 0000939  91.4910 268.6190 15.08839352220866
STARLINK-4032           
1 52688U 22053AJ  26133.23940091 -.00000629  00000+0 -21444-4 0  9991
2 52688  53.2154 214.2295 0001169  88.8885 271.2241 15.08839052220866
STARLINK-4078           
1 52689U 22053AK  26133.25950501  .00063668  00000+0  63835-3 0  9990
2 52689  53.2056 130.7464 0006243  35.8524 324.2911 15.64926230222084
STARLINK-4035           
1 52690U 22053AL  26133.25046928  .00001086  00000+0  86313-4 0  9994
2 52690  53.2161 214.2934 0001119  72.8970 287.2144 15.08837707220864
STARLINK-3993           
1 52692U 22053AN  26133.21362404  .00000062  00000+0  21972-4 0  9995
2 52692  53.2166 214.1909 0001073  87.3140 272.7975 15.08839960220898
STARLINK-3946           
1 52693U 22053AP  26133.22101521  .00000221  00000+0  31972-4 0  9996
2 52693  53.2167 214.4281 0000663  79.3497 280.7570 15.08838861220895
STARLINK-4072           
1 52694U 22053AQ  26132.50709016  .00000643  00000+0  58452-4 0  9990
2 52694  53.2170 217.6354 0001156  84.0720 276.0404 15.08842893220788
STARLINK-4041           
1 52695U 22053AR  26132.94269433  .00000438  00000+0  45583-4 0  9996
2 52695  53.2167 220.4733 0001252  92.7793 267.3342 15.08835890220795
STARLINK-4018           
1 52697U 22053AT  26132.63823178  .00000190  00000+0  30030-4 0  9992
2 52697  53.2175 222.0462 0001326  89.2506 270.8638 15.08843490220745
STARLINK-4030           
1 52698U 22053AU  26132.97952461  .00003865  00000+0  26085-3 0  9994
2 52698  53.2162 220.5045 0001379  86.7793 273.3357 15.08831039220786
STARLINK-3987           
1 52699U 22053AV  26132.49468244  .00001204  00000+0  93767-4 0  9990
2 52699  53.2168 212.7197 0001140  89.7930 270.3193 15.08828254220876
STARLINK-4034           
1 52700U 22053AW  26132.67403087  .00000875  00000+0  73079-4 0  9994
2 52700  53.2168 221.5243 0001118  81.5444 278.5675 15.08837850220758
STARLINK-4033           
1 52702U 22053AY  26133.23344008  .00000154  00000+0  27773-4 0  9996
2 52702  53.2176 219.4021 0001148  86.6124 273.4999 15.08841226220837
STARLINK-4020           
1 52703U 22053AZ  26133.19251403  .00001856  00000+0  13463-3 0  9998
2 52703  53.2170 204.5701 0000772 116.6097 243.4975 15.08839105219772
STARLINK-3999           
1 52704U 22053BA  26133.20721505 -.00000421  00000+0 -83771-5 0  9996
2 52704  53.2109 204.4872 0000863 109.7343 250.3743 15.08837745221053
STARLINK-3844           
1 52705U 22053BB  26133.19617616  .00001106  00000+0  87538-4 0  9995
2 52705  53.2171 204.5391 0001048  76.7842 283.3267 15.08841731221050
STARLINK-3970           
1 52706U 22053BC  26133.19985636  .00001061  00000+0  84726-4 0  9992
2 52706  53.2162 204.5234 0001010  89.6355 270.4753 15.08840049221056
STARLINK-4007           
1 52707U 22053BD  26132.90710684  .00008701  00000+0  55309-3 0  9992
2 52707  53.2159 205.6621 0001447  34.1148 325.9937 15.09564945221075
STARLINK-3962           
1 52708U 22053BE  26133.22193458  .00000510  00000+0  50146-4 0  9998
2 52708  53.2174 204.4123 0000923  79.4476 280.6620 15.08837378221260
COSMOS 2556             
1 52713U 22054A   26133.27672569  .00001844  00000+0  74781-4 0  9997
2 52713  97.6269  82.2569 0001336 107.6549 252.4834 15.25966368221415
2022-056B               
1 52717U 22056B   26133.28672082  .00000654  00000+0  13675-2 0  9995
2 52717  86.0046 112.5002 0045777 133.2128 227.2846 13.29588684193670
GHGSAT-C3               
1 52737U 22057F   26133.34308994  .00004194  00000+0  13049-3 0  9992
2 52737  97.6546 277.7162 0005069 236.2306 123.8454 15.33898193220198
GHGSAT-C5               
1 52744U 22057N   26133.25105720  .00004109  00000+0  12798-3 0  9998
2 52744  97.6635 279.1548 0005689 234.5025 125.5687 15.33872932220185
